OBJECT_NAME,OBJECT_ID,EPOCH,MEAN_MOTION,ECCENTRICITY,INCLINATION,RA_OF_ASC_NODE,ARG_OF_PERICENTER,MEAN_ANOMALY,EPHEMERIS_TYPE,CLASSIFICATION_TYPE,NORAD_CAT_ID,ELEMENT_SET_NO,REV_AT_EPOCH,BSTAR,MEAN_MOTION_DOT,MEAN_MOTION_DDOT
STARLINK-6370,2023-099AX,2026-06-19T00:26:17.310624,15.27577656,.00014118,43.0021,29.6334,256.0228,104.0467,0,U,57373,999,16169,.43778349E-4,.943E-5,0
STARLINK-6369,2023-099AY,2026-06-19T14:31:25.237344,15.27577380,.0001565,43.0047,8.1915,268.7316,91.3356,0,U,57374,999,16199,.2685816E-4,.477E-5,0
STARLINK-6363,2023-099AZ,2026-06-19T00:24:27.089280,15.27565337,.00017554,43.0031,29.6299,60.8593,299.2434,0,U,57375,999,16169,-.31710806E-4,-.1135E-4,0
STARLINK-6367,2023-099BA,2026-06-19T07:42:38.235168,15.27596606,.00022786,43.0034,24.2165,279.8450,80.2145,0,U,57376,999,16178,.62475218E-3,.16978E-3,0
STARLINK-6358,2023-099BB,2026-06-19T00:30:52.078176,15.26744008,.0001459,43.0040,33.0956,271.3706,88.6978,0,U,57377,999,16164,.31455407E-4,.584E-5,0
STARLINK-6364,2023-099BC,2026-06-19T14:31:26.723424,15.27557527,.00015167,43.0021,356.8952,258.6440,101.4241,0,U,57378,999,16286,.13939475E-3,.3573E-4,0
STARLINK-6361,2023-099BD,2026-06-19T07:37:04.560960,15.27578698,.00010277,43.0039,24.1836,269.9590,90.1144,0,U,57379,999,16178,.21080569E-4,.318E-5,0
STARLINK-6366,2023-099BE,2026-06-19T13:02:50.156448,15.27575688,.00011423,43.0036,357.2813,252.7307,107.3420,0,U,57380,999,16284,.3687587E-5,-.161E-5,0
STARLINK-6371,2023-099BF,2026-06-19T12:51:42.647328,15.27577796,.00011136,43.0022,8.5174,249.8490,110.2242,0,U,57381,999,16272,.13523126E-4,.11E-5,0
STARLINK-30240,2023-102A,2026-06-19T21:57:10.756512,15.27579068,.0001172,43.0038,31.2925,263.2481,96.8237,0,U,57404,999,16187,.36421009E-4,.74E-5,0
STARLINK-30195,2023-102C,2026-06-19T22:00:01.999584,15.34522818,.0001893,42.9997,38.1780,299.7291,43.7336,0,U,57406,999,585,.27813868E-1,.1034765E-1,0
STARLINK-30207,2023-102D,2026-06-19T22:07:10.578144,15.27583141,.00012986,43.0031,16.7179,273.5865,86.4838,0,U,57407,999,16205,.31560116E-4,.606E-5,0
STARLINK-30205,2023-102E,2026-06-19T08:21:13.626432,15.27576653,.00018609,43.0080,34.7780,254.1639,105.9008,0,U,57408,999,16178,.15431912E-4,.162E-5,0
STARLINK-30222,2023-102F,2026-06-19T07:36:49.105728,15.27579738,.00011812,43.0028,34.5481,277.7327,82.3391,0,U,57409,999,16178,.39447055E-4,.824E-5,0
STARLINK-30172,2023-102G,2026-06-19T07:29:38.512320,15.27560812,.00011739,43.0028,35.3587,268.0877,91.9840,0,U,57410,999,16177,-.37361592E-4,-.1289E-4,0
STARLINK-30214,2023-102H,2026-06-19T01:16:29.983584,15.27575846,.00012227,43.0045,36.0104,269.2718,90.7994,0,U,57411,999,16169,-.4526828E-5,-.387E-5,0
STARLINK-30182,2023-102J,2026-06-19T21:53:28.200480,15.27496883,.00016319,43.0059,31.2720,247.2384,112.8296,0,U,57412,999,16187,.67664749E-3,.18357E-3,0
STARLINK-30191,2023-102K,2026-06-19T11:16:31.968480,15.27579681,.00014354,43.0026,331.8512,264.7032,95.3656,0,U,57413,999,16253,.67358199E-4,.1592E-4,0
STARLINK-30193,2023-102L,2026-06-19T22:00:01.999584,15.44548910,.00038949,43.0013,29.1048,307.5760,234.0859,0,U,57414,999,587,.25683501E-2,.123802E-2,0
STARLINK-30208,2023-102M,2026-06-19T21:47:55.250304,15.27582331,.00012632,43.0038,31.2438,269.8145,90.2562,0,U,57415,999,16182,.17002001E-4,.206E-5,0
STARLINK-30224,2023-102N,2026-06-19T07:51:37.445472,15.27576178,.00010331,43.0034,34.6217,269.6793,90.3940,0,U,57416,999,16178,.153639E-4,.161E-5,0
STARLINK-30043,2023-102P,2026-06-19T07:53:28.262112,15.27575212,.00011192,43.0051,34.6301,272.8644,87.2079,0,U,57417,999,16178,.20697439E-4,.307E-5,0
STARLINK-30221,2023-102Q,2026-06-19T00:45:40.844736,15.27575254,.00014234,43.0046,43.5301,260.6943,99.3748,0,U,57418,999,16165,.9184345E-5,-.9E-7,0
STARLINK-30188,2023-105C,2026-06-19T22:00:01.999584,15.29315240,.0002788,43.0024,46.1485,284.9718,80.3084,0,U,57432,999,580,.12779044E-2,.37008E-3,0
STARLINK-30105,2023-105D,2026-06-19T06:54:51.304320,15.27590777,.00013107,43.0019,177.0598,267.0304,93.0398,0,U,57433,999,16386,.12210824E-3,.3101E-4,0
STARLINK-30102,2023-105E,2026-06-19T16:59:56.439168,15.27582360,.00011974,43.0055,43.7601,292.2719,67.8006,0,U,57434,999,16113,-.13349218E-4,-.629E-5,0
STARLINK-30158,2023-105J,2026-06-19T17:03:37.624896,15.27567219,.00015267,43.0052,43.7772,275.6903,84.3774,0,U,57438,999,16118,.19770171E-3,.518E-4,0
STARLINK-30160,2023-105M,2026-06-19T09:00:18.877536,15.27566061,.00012314,43.0010,52.3732,266.1125,93.9586,0,U,57441,999,16089,.79347138E-4,.1921E-4,0
STARLINK-30146,2023-105N,2026-06-18T23:53:27.420864,15.27577364,.00015785,43.0050,47.8659,267.3349,92.7322,0,U,57442,999,16113,.22656506E-4,.361E-5,0
STARLINK-30197,2023-105P,2026-06-19T08:48:46.613952,15.27562492,.00020131,43.0060,45.4967,267.6478,92.4143,0,U,57443,999,16113,.86432113E-4,.2115E-4,0
