STARLINK-6370           
1 57373U 23099AX  26170.01825591  .00000943  00000+0  43778-4 0  9993
2 57373  43.0021  29.6334 0001411 256.0228 104.0467 15.27577656161692
STARLINK-6369           
1 57374U 23099AY  26170.60515321  .00000477  00000+0  26858-4 0  9998
2 57374  43.0047   8.1915 0001565 268.7316  91.3356 15.27577380161998
STARLINK-6363           
1 57375U 23099AZ  26170.01698020 -.00001135  00000+0 -31711-4 0  9990
2 57375  43.0031  29.6299 0001755  60.8593 299.2434 15.27565337161696
STARLINK-6367           
1 57376U 23099BA  26170.32127587  .00016978  00000+0  62475-3 0  9999
2 57376  43.0034  24.2165 0002278 279.8450  80.2145 15.27596606161788
STARLINK-6358           
1 57377U 23099BB  26170.02143609  .00000584  00000+0  31455-4 0  9991
2 57377  43.0040  33.0956 0001459 271.3706  88.6978 15.26744008161644
STARLINK-6364           
1 57378U 23099BC  26170.60517041  .00003573  00000+0  13939-3 0  9998
2 57378  43.0021 356.8952 0001516 258.6440 101.4241 15.27557527162864
STARLINK-6361           
1 57379U 23099BD  26170.31741390  .00000318  00000+0  21081-4 0  9995
2 57379  43.0039  24.1836 0001027 269.9590  90.1144 15.27578698161786
STARLINK-6366           
1 57380U 23099BE  26170.54363607 -.00000161  00000+0  36876-5 0  9999
2 57380  43.0036 357.2813 0001142 252.7307 107.3420 15.27575688162846
STARLINK-6371           
1 57381U 23099BF  26170.53591027  .00000110  00000+0  13523-4 0  9994
2 57381  43.0022   8.5174 0001113 249.8490 110.2242 15.27577796162720
STARLINK-30240          
1 57404U 23102A   26170.91470783  .00000740  00000+0  36421-4 0  9993
2 57404  43.0038  31.2925 0001172 263.2481  96.8237 15.27579068161877
STARLINK-30195          
1 57406U 23102C   26170.91668981  .01034765  00000+0  27814-1 0  9992
2 57406  42.9997  38.1780 0001893 299.7291  43.7336 15.34522818  5854
STARLINK-30207          
1 57407U 23102D   26170.92165021  .00000606  00000+0  31560-4 0  9993
2 57407  43.0031  16.7179 0001298 273.5865  86.4838 15.27583141162051
STARLINK-30205          
1 57408U 23102E   26170.34807438  .00000162  00000+0  15432-4 0  9992
2 57408  43.0080  34.7780 0001860 254.1639 105.9008 15.27576653161788
STARLINK-30222          
1 57409U 23102F   26170.31723502  .00000824  00000+0  39447-4 0  9996
2 57409  43.0028  34.5481 0001181 277.7327  82.3391 15.27579738161788
STARLINK-30172          
1 57410U 23102G   26170.31225130 -.00001289  00000+0 -37362-4 0  9994
2 57410  43.0028  35.3587 0001173 268.0877  91.9840 15.27560812161777
STARLINK-30214          
1 57411U 23102H   26170.05312481 -.00000387  00000+0 -45268-5 0  9995
2 57411  43.0045  36.0104 0001222 269.2718  90.7994 15.27575846161693
STARLINK-30182          
1 57412U 23102J   26170.91213195  .00018357  00000+0  67665-3 0  9990
2 57412  43.0059  31.2720 0001631 247.2384 112.8296 15.27496883161873
STARLINK-30191          
1 57413U 23102K   26170.46981445  .00001592  00000+0  67358-4 0  9994
2 57413  43.0026 331.8512 0001435 264.7032  95.3656 15.27579681162539
STARLINK-30193          
1 57414U 23102L   26170.91668981  .00123802  00000+0  25684-2 0  9995
2 57414  43.0013  29.1048 0003894 307.5760 234.0859 15.44548910  5872
STARLINK-30208          
1 57415U 23102M   26170.90827836  .00000206  00000+0  17002-4 0  9990
2 57415  43.0038  31.2438 0001263 269.8145  90.2562 15.27582331161829
STARLINK-30224          
1 57416U 23102N   26170.32751673  .00000161  00000+0  15364-4 0  9991
2 57416  43.0034  34.6217 0001033 269.6793  90.3940 15.27576178161788
STARLINK-30043          
1 57417U 23102P   26170.32879933  .00000307  00000+0  20697-4 0  9999
2 57417  43.0051  34.6301 0001119 272.8644  87.2079 15.27575212161784
STARLINK-30221          
1 57418U 23102Q   26170.03172274 -.00000009  00000+0  91843-5 0  9994
2 57418  43.0046  43.5301 0001423 260.6943  99.3748 15.27575254161652
STARLINK-30188          
1 57432U 23105C   26170.91668981  .00037008  00000+0  12779-2 0  9991
2 57432  43.0024  46.1485 0002788 284.9718  80.3084 15.29315240  5806
STARLINK-30105          
1 57433U 23105D   26170.28809380  .00003101  00000+0  12211-3 0  9991
2 57433  43.0019 177.0598 0001310 267.0304  93.0398 15.27590777163861
STARLINK-30102          
1 57434U 23105E   26170.70829212 -.00000629  00000+0 -13349-4 0  9993
2 57434  43.0055  43.7601 0001197 292.2719  67.8006 15.27582360161131
STARLINK-30158          
1 57438U 23105J   26170.71085214  .00005180  00000+0  19770-3 0  9992
2 57438  43.0052  43.7772 0001526 275.6903  84.3774 15.27567219161184
STARLINK-30160          
1 57441U 23105M   26170.37521849  .00001921  00000+0  79347-4 0  9993
2 57441  43.0010  52.3732 0001231 266.1125  93.9586 15.27566061160896
STARLINK-30146          
1 57442U 23105N   26169.99545626  .00000361  00000+0  22657-4 0  9998
2 57442  43.0050  47.8659 0001578 267.3349  92.7322 15.27577364161134
STARLINK-30197          
1 57443U 23105P   26170.36720618  .00002115  00000+0  86432-4 0  9998
2 57443  43.0060  45.4967 0002013 267.6478  92.4143 15.27562492161137
